[{"OBJECT_NAME":"STARLINK-35340","OBJECT_ID":"2025-232T","EPOCH":"2026-03-09T08:07:22.279584","MEAN_MOTION":15.30199116,"ECCENTRICITY":0.00011731,"INCLINATION":53.1583,"RA_OF_ASC_NODE":105.4085,"ARG_OF_PERICENTER":127.6285,"MEAN_ANOMALY":232.4822,"EPHEMERIS_TYPE":0,"CLASSIFICATION_TYPE":"U","NORAD_CAT_ID":66022,"ELEMENT_SET_NO":999,"REV_AT_EPOCH":2338,"BSTAR":0.00073370048,"MEAN_MOTION_DOT":0.00021433,"MEAN_MOTION_DDOT":0},{"OBJECT_NAME":"FENGYUN 1C DEB","OBJECT_ID":"1999-025BZU","EPOCH":"2026-03-09T17:19:51.665664","MEAN_MOTION":15.28412118,"ECCENTRICITY":0.00188802,"INCLINATION":98.9598,"RA_OF_ASC_NODE":354.2029,"ARG_OF_PERICENTER":82.3682,"MEAN_ANOMALY":277.9697,"EPHEMERIS_TYPE":0,"CLASSIFICATION_TYPE":"U","NORAD_CAT_ID":31614,"ELEMENT_SET_NO":999,"REV_AT_EPOCH":97742,"BSTAR":0.011500831,"MEAN_MOTION_DOT":0.0033373,"MEAN_MOTION_DDOT":0}]
